OBJECT_NAME,OBJECT_ID,EPOCH,MEAN_MOTION,ECCENTRICITY,INCLINATION,RA_OF_ASC_NODE,ARG_OF_PERICENTER,MEAN_ANOMALY,EPHEMERIS_TYPE,CLASSIFICATION_TYPE,NORAD_CAT_ID,ELEMENT_SET_NO,REV_AT_EPOCH,BSTAR,MEAN_MOTION_DOT,MEAN_MOTION_DDOT
GSAT-10,2012-051B,2026-07-05T03:58:09.733152,1.00269852,.00079598,0.0448,239.7150,214.4732,331.5180,0,U,38779,999,5027,0,-.151E-5,0
INTELSAT 23 (IS-23),2012-057A,2026-07-04T08:30:13.601376,1.00266390,.0000499,0.0158,22.2071,191.2104,143.4564,0,U,38867,999,5012,0,-.273E-5,0
BEIDOU-2 G6,2012-059A,2026-07-05T02:15:50.942304,1.00269858,.00093104,4.4641,73.3348,330.1932,357.5310,0,U,38953,999,5008,0,-.164E-5,0
LUCH-5B,2012-061A,2026-07-04T22:21:48.556800,1.00272316,.00032339,10.5196,49.7030,136.9193,55.5268,0,U,38977,999,4978,0,-.128E-5,0
YAMAL 300K,2012-061B,2026-07-05T04:26:41.889120,1.00271461,.0000219,0.0356,231.5459,67.3813,233.8907,0,U,38978,999,4981,0,.84E-6,0
STAR ONE C3,2012-062A,2026-07-05T03:13:09.916320,1.00266824,.00025101,0.0179,20.4036,104.8278,131.1885,0,U,38991,999,4994,0,0,0
EUTELSAT 21B,2012-062B,2026-07-05T05:23:17.981088,1.00269524,.00032264,0.0651,352.7148,110.7378,282.1908,0,U,38992,999,5000,0,.143E-5,0
ECHOSTAR 16,2012-065A,2026-07-02T18:49:19.161984,1.00267684,.00019277,0.0245,45.5752,61.1954,34.8859,0,U,39008,999,4980,0,0,0
ZHONGXING-12,2012-067A,2026-07-05T02:16:50.846016,1.00271567,.0003159,0.0433,92.8737,0.9773,310.9710,0,U,39017,999,4968,0,-.194E-5,0
EUTELSAT 70B,2012-069A,2026-07-05T03:54:40.068000,1.00271320,.00034936,0.0625,12.6124,90.0229,309.6774,0,U,39020,999,4968,0,-.3E-6,0
YAMAL 402,2012-070A,2026-07-05T05:32:47.071968,1.00271631,.00038772,1.3081,83.9503,17.2911,320.0798,0,U,39022,999,4957,0,.99E-6,0
SKYNET 5D,2012-075A,2026-07-05T03:49:33.057696,1.00271598,.00037872,0.0661,2.2942,109.9993,281.0105,0,U,39034,999,4933,0,.112E-5,0
MEXSAT 3,2012-075B,2026-07-04T03:04:37.450272,1.00276359,.0001021,0.0162,325.3415,121.0192,127.1796,0,U,39035,999,722,0,-.15E-6,0
TDRS 11,2013-004A,2026-07-05T04:27:26.817120,1.00275862,.00048609,3.5472,31.5502,26.9681,117.1635,0,U,39070,999,4687,0,.92E-6,0
AMAZONAS 3,2013-006A,2026-07-04T22:09:05.978304,1.00270681,.00032364,0.0293,237.0957,269.7769,47.3325,0,U,39078,999,4509,0,-.27E-5,0
AZERSPACE 1,2013-006B,2026-07-05T03:47:40.736832,1.00272392,.00018368,0.0152,43.5995,92.4459,250.0193,0,U,39079,999,4898,0,.146E-5,0
SBIRS GEO-2 (USA 241),2013-011A,2026-07-03T11:59:14.927712,1.00271289,.0001983,4.5243,52.5130,41.0607,317.9531,0,U,39120,999,4869,0,-.277E-5,0
EUTELSAT 117 WEST A,2013-012A,2026-07-05T04:43:52.660128,1.00271640,.00028698,0.0116,351.1598,115.6669,130.5262,0,U,39122,999,4861,0,0,0
ANIK G1,2013-014A,2026-07-05T05:11:19.396608,1.00269731,.00017181,0.0214,37.5223,76.9593,139.2617,0,U,39127,999,4843,0,0,0
ZHONGXING-11,2013-020A,2026-07-05T02:19:50.558880,1.00274204,.00027485,0.0139,13.9773,63.8532,338.1337,0,U,39157,999,4807,0,-.278E-5,0
EUTELSAT 7B,2013-022A,2026-07-05T05:19:10.876224,1.00270990,.00040795,0.0646,351.0417,56.1394,322.8303,0,U,39163,999,4812,0,.61E-6,0
WGS F5 (USA 243),2013-024A,2026-07-02T18:51:56.409984,1.00269718,.00003737,0.0207,27.1404,126.2370,357.9350,0,U,39168,999,4733,0,0,0
SES-6,2013-026A,2026-07-05T05:05:34.679616,1.00271571,.000262,0.0178,347.6870,109.5282,221.8951,0,U,39172,999,4790,0,-.248E-5,0
IRNSS-1A,2013-034A,2026-07-04T17:34:24.053376,1.00280121,.0017855,35.7585,63.6187,181.6681,356.1728,0,U,39199,999,4754,0,.69E-6,0
MUOS-2,2013-036A,2026-07-04T21:32:53.113344,1.00270650,.00520255,5.0299,45.5514,176.5758,195.9527,0,U,39206,999,4737,0,-.2E-7,0
ALPHASAT,2013-038A,2026-07-04T14:00:19.759392,1.00271059,.0002194,2.9988,1.2675,118.1369,38.1475,0,U,39215,999,4419,0,.145E-5,0
INSAT-3D,2013-038B,2026-07-02T20:26:20.229792,1.00268722,.00010564,1.9642,82.3574,15.1644,259.4386,0,U,39216,999,4723,0,-.329E-5,0
WGS F6 (USA 244),2013-041A,2026-07-02T18:28:21.730944,1.00272986,.00015393,0.0189,25.9393,192.6833,204.0963,0,U,39222,999,4621,0,.99E-6,0
ES'HAIL 1,2013-044A,2026-07-05T05:24:25.373952,1.00271453,.00024343,0.0470,354.4598,109.6380,285.7231,0,U,39233,999,4680,0,.156E-5,0
GSAT-7,2013-044B,2026-07-05T03:03:38.624832,1.00271688,.00028021,0.1246,90.6618,180.4909,131.8419,0,U,39234,999,4543,0,-.63E-6,0
AMOS-4,2013-045A,2026-07-05T03:53:02.722848,1.00272347,.0002211,0.0225,76.0706,0.7736,329.5761,0,U,39237,999,4713,0,.2E-6,0
AEHF-3 (USA 246),2013-050A,2026-07-05T04:41:37.875264,1.00268574,.00882903,5.3373,67.0207,187.6831,334.6845,0,U,39256,999,4583,0,.4E-6,0
