GSAT-10                 
1 38779U 12051B   26186.16539043 -.00000151  00000+0  00000+0 0  9993
2 38779   0.0448 239.7150 0007959 214.4732 331.5180  1.00269852 50270
INTELSAT 23 (IS-23)     
1 38867U 12057A   26185.35432409 -.00000273  00000+0  00000+0 0  9990
2 38867   0.0158  22.2071 0000499 191.2104 143.4564  1.00266390 50124
BEIDOU-2 G6             
1 38953U 12059A   26186.09433961 -.00000164  00000+0  00000+0 0  9993
2 38953   4.4641  73.3348 0009310 330.1932 357.5310  1.00269858 50087
LUCH-5B                 
1 38977U 12061A   26185.93181200 -.00000128  00000+0  00000+0 0  9990
2 38977  10.5196  49.7030 0003233 136.9193  55.5268  1.00272316 49785
YAMAL 300K              
1 38978U 12061B   26186.18520705  .00000084  00000+0  00000+0 0  9996
2 38978   0.0356 231.5459 0000219  67.3813 233.8907  1.00271461 49816
STAR ONE C3             
1 38991U 12062A   26186.13414255  .00000000  00000+0  00000+0 0  9997
2 38991   0.0179  20.4036 0002510 104.8278 131.1885  1.00266824 49944
EUTELSAT 21B            
1 38992U 12062B   26186.22451367  .00000143  00000+0  00000+0 0  9991
2 38992   0.0651 352.7148 0003226 110.7378 282.1908  1.00269524 50009
ECHOSTAR 16             
1 39008U 12065A   26183.78424956  .00000000  00000+0  00000+0 0  9997
2 39008   0.0245  45.5752 0001927  61.1954  34.8859  1.00267684 49808
ZHONGXING-12            
1 39017U 12067A   26186.09503294 -.00000194  00000+0  00000+0 0  9994
2 39017   0.0433  92.8737 0003159   0.9773 310.9710  1.00271567 49689
EUTELSAT 70B            
1 39020U 12069A   26186.16296375 -.00000030  00000+0  00000+0 0  9996
2 39020   0.0625  12.6124 0003493  90.0229 309.6774  1.00271320 49685
YAMAL 402               
1 39022U 12070A   26186.23110037  .00000099  00000+0  00000+0 0  9992
2 39022   1.3081  83.9503 0003877  17.2911 320.0798  1.00271631 49570
SKYNET 5D               
1 39034U 12075A   26186.15941039  .00000112  00000+0  00000+0 0  9991
2 39034   0.0661   2.2942 0003787 109.9993 281.0105  1.00271598 49337
MEXSAT 3                
1 39035U 12075B   26185.12821123 -.00000015  00000+0  00000+0 0  9992
2 39035   0.0162 325.3415 0001020 121.0192 127.1796  1.00276359  7220
TDRS 11                 
1 39070U 13004A   26186.18572705  .00000092  00000+0  00000+0 0  9994
2 39070   3.5472  31.5502 0004860  26.9681 117.1635  1.00275862 46878
AMAZONAS 3              
1 39078U 13006A   26185.92298586 -.00000270  00000+0  00000+0 0  9996
2 39078   0.0293 237.0957 0003236 269.7769  47.3325  1.00270681 45093
AZERSPACE 1             
1 39079U 13006B   26186.15811038  .00000146  00000+0  00000+0 0  9997
2 39079   0.0152  43.5995 0001836  92.4459 250.0193  1.00272392 48989
SBIRS GEO-2 (USA 241)   
1 39120U 13011A   26184.49947833 -.00000277  00000+0  00000+0 0  9994
2 39120   4.5243  52.5130 0001983  41.0607 317.9531  1.00271289 48696
EUTELSAT 117 WEST A     
1 39122U 13012A   26186.19713727  .00000000  00000+0  00000+0 0  9992
2 39122   0.0116 351.1598 0002869 115.6669 130.5262  1.00271640 48617
ANIK G1                 
1 39127U 13014A   26186.21619672  .00000000  00000+0  00000+0 0  9996
2 39127   0.0214  37.5223 0001718  76.9593 139.2617  1.00269731 48436
ZHONGXING-11            
1 39157U 13020A   26186.09711295 -.00000278  00000+0  00000+0 0  9994
2 39157   0.0139  13.9773 0002748  63.8532 338.1337  1.00274204 48075
EUTELSAT 7B             
1 39163U 13022A   26186.22165366  .00000061  00000+0  00000+0 0  9999
2 39163   0.0646 351.0417 0004079  56.1394 322.8303  1.00270990 48123
WGS F5 (USA 243)        
1 39168U 13024A   26183.78606956  .00000000  00000+0  00000+0 0  9992
2 39168   0.0207  27.1404 0000373 126.2370 357.9350  1.00269718 47333
SES-6                   
1 39172U 13026A   26186.21220694 -.00000248  00000+0  00000+0 0  9996
2 39172   0.0178 347.6870 0002620 109.5282 221.8951  1.00271571 47904
IRNSS-1A                
1 39199U 13034A   26185.73222284  .00000069  00000+0  00000+0 0  9997
2 39199  35.7585  63.6187 0017855 181.6681 356.1728  1.00280121 47541
MUOS-2                  
1 39206U 13036A   26185.89783696 -.00000002  00000+0  00000+0 0  9992
2 39206   5.0299  45.5514 0052025 176.5758 195.9527  1.00270650 47374
ALPHASAT                
1 39215U 13038A   26185.58356203  .00000145  00000+0  00000+0 0  9997
2 39215   2.9988   1.2675 0002194 118.1369  38.1475  1.00271059 44195
INSAT-3D                
1 39216U 13038B   26183.85162303 -.00000329  00000+0  00000+0 0  9997
2 39216   1.9642  82.3574 0001056  15.1644 259.4386  1.00268722 47238
WGS F6 (USA 244)        
1 39222U 13041A   26183.76969596  .00000099  00000+0  00000+0 0  9990
2 39222   0.0189  25.9393 0001539 192.6833 204.0963  1.00272986 46211
ES'HAIL 1               
1 39233U 13044A   26186.22529368  .00000156  00000+0  00000+0 0  9992
2 39233   0.0470 354.4598 0002434 109.6380 285.7231  1.00271453 46800
GSAT-7                  
1 39234U 13044B   26186.12753038 -.00000063  00000+0  00000+0 0  9993
2 39234   0.1246  90.6618 0002802 180.4909 131.8419  1.00271688 45435
AMOS-4                  
1 39237U 13045A   26186.16183707  .00000020  00000+0  00000+0 0  9993
2 39237   0.0225  76.0706 0002211   0.7736 329.5761  1.00272347 47134
AEHF-3 (USA 246)        
1 39256U 13050A   26186.19557726  .00000040  00000+0  00000+0 0  9991
2 39256   5.3373  67.0207 0088290 187.6831 334.6845  1.00268574 45837
